HIMAWARI-8              
1 40267U 14060A   24006.95277729 -.00000247  00000+0  00000+0 0  9992
2 40267   0.0352 156.4300 0000908 139.8553 293.3854  1.00269935 33916
